NORAD_CAT_ID,OBJECT_NAME,OBJECT_TYPE,EPOCH,MEAN_MOTION,ECCENTRICITY,INCLINATION,RA_OF_ASC_NODE,ARG_OF_PERICENTER,MEAN_ANOMALY,BSTAR,MEAN_MOTION_DOT,MEAN_MOTION_DDOT,TLE_LINE0,TLE_LINE1,TLE_LINE2,SEMIMAJOR_AXIS,PERIOD,APOGEE,PERIGEE,DECAYED
50180.0,STARLINK-3265,PAYLOAD,2024-05-30 14:02:29,15.08840574,8.82e-05,53.2176,278.5901,93.1513,266.958,0.00013507,1.863e-05,0.0,0 STARLINK-3265,1 50180U 21125AA  24151.58506866  .00001863  00000-0  13507-3 0  9999,2 50180  53.2176 278.5901 0000882  93.1513 266.9580 15.08840574138800,6917.879,95.438,540.354,539.133,0.0
50180.0,STARLINK-3265,PAYLOAD,2024-05-31 13:53:16,15.08842828,8.75e-05,53.2172,274.1253,74.5955,285.5134,0.00010086,1.318e-05,0.0,0 STARLINK-3265,1 50180U 21125AA  24152.57866896  .00001318  00000-0  10086-3 0  9995,2 50180  53.2172 274.1253 0000875  74.5955 285.5134 15.08842828138955,6917.872,95.437,540.342,539.131,0.0
50180.0,STARLINK-3265,PAYLOAD,2024-05-31 15:28:40,15.08844047,8.97e-05,53.2174,273.8278,71.8437,288.2653,0.00010863,1.442e-05,0.0,0 STARLINK-3265,1 50180U 21125AA  24152.64490800  .00001442  00000-0  10863-3 0  9992,2 50180  53.2174 273.8278 0000897  71.8437 288.2653 15.08844047135834,6917.868,95.437,540.354,539.112,0.0
50180.0,STARLINK-3265,PAYLOAD,2024-06-01 12:08:41,15.08834979,0.000111,53.2182,269.9621,73.895,286.2165,6.7965e-05,7.94e-06,0.0,0 STARLINK-3265,1 50180U 21125AA  24153.50603581  .00000794  00000-0  67965-4 0  9995,2 50180  53.2182 269.9621 0001110  73.8950 286.2165 15.08834979135965,6917.896,95.438,540.529,538.993,0.0
50180.0,STARLINK-3265,PAYLOAD,2024-06-01 13:44:04,15.08837611,0.0001091,53.2189,269.6662,85.2766,274.835,2.4213e-05,9.8e-07,0.0,0 STARLINK-3265,1 50180U 21125AA  24153.57227443  .00000098  00000-0  24213-4 0  9997,2 50180  53.2189 269.6662 0001091  85.2766 274.8350 15.08837611139109,6917.888,95.438,540.507,538.998,0.0
50180.0,STARLINK-3265,PAYLOAD,2024-06-02 00:51:46,15.08843322,9.24e-05,53.2178,267.5828,88.5278,271.582,1.922e-05,1.8e-07,0.0,0 STARLINK-3265,1 50180U 21125AA  24154.03595039  .00000018  00000-0  19220-4 0  9992,2 50180  53.2178 267.5828 0000924  88.5278 271.5820 15.08843322136048,6917.87,95.437,540.374,539.096,0.0
50180.0,STARLINK-3265,PAYLOAD,2024-06-02 13:34:52,15.08811965,8.81e-05,53.2171,265.2037,101.5347,258.5744,0.00045367,6.934e-05,0.0,0 STARLINK-3265,1 50180U 21125AA  24154.56588377  .00006934  00000-0  45367-3 0  9990,2 50180  53.2171 265.2037 0000881 101.5347 258.5744 15.08811965136120,6917.966,95.439,540.441,539.222,0.0
50180.0,STARLINK-3265,PAYLOAD,2024-06-02 16:45:37,15.08845493,9.52e-05,53.217,264.6096,89.7591,270.351,8.9481e-05,1.137e-05,0.0,0 STARLINK-3265,1 50180U 21125AA  24154.69834811  .00001137  00000-0  89481-4 0  9997,2 50180  53.2170 264.6096 0000952  89.7591 270.3510 15.08845493136142,6917.864,95.437,540.387,539.07,0.0
50180.0,STARLINK-3265,PAYLOAD,2024-06-03 13:25:38,15.08842078,0.0001225,53.2172,260.7437,103.6741,256.4388,0.00013054,1.79e-05,0.0,0 STARLINK-3265,1 50180U 21125AA  24155.55946928  .00001790  00000-0  13054-3 0  9993,2 50180  53.2172 260.7437 0001225 103.6741 256.4388 15.08842078139403,6917.874,95.437,540.586,538.892,0.0
50180.0,STARLINK-3265,PAYLOAD,2024-06-03 18:11:46,15.08850896,9.84e-05,53.2165,259.85,106.158,253.952,0.00017752,2.539e-05,0.0,0 STARLINK-3265,1 50180U 21125AA  24155.75818140  .00002539  00000-0  17752-3 0  9990,2 50180  53.2165 259.8500 0000984 106.1580 253.9520 15.08850896136308,6917.847,95.437,540.393,539.031,0.0
50180.0,STARLINK-3265,PAYLOAD,2024-06-04 13:16:25,15.08841397,0.0001277,53.2152,256.2843,98.4997,261.614,8.2649e-05,1.028e-05,0.0,0 STARLINK-3265,1 50180U 21125AA  24156.55306942  .00001028  00000-0  82649-4 0  9991,2 50180  53.2152 256.2843 0001277  98.4997 261.6140 15.08841397136429,6917.876,95.437,540.625,538.858,0.0
50180.0,STARLINK-3265,PAYLOAD,2024-06-05 13:07:13,15.08829136,0.0001188,53.2163,251.8205,107.3862,252.726,-5.4292e-05,-1.151e-05,0.0,0 STARLINK-3265,1 50180U 21125AA  24157.54668053 -.00001151  00000-0 -54292-4 0  9997,2 50180  53.2163 251.8205 0001188 107.3862 252.7260 15.08829136136573,6917.914,95.438,540.6,538.957,0.0
50180.0,STARLINK-3265,PAYLOAD,2024-06-06 12:57:59,15.08843073,0.0001109,53.2166,247.366,97.4691,262.6427,0.00018393,2.641e-05,0.0,0 STARLINK-3265,1 50180U 21125AA  24158.54026971  .00002641  00000-0  18393-3 0  9999,2 50180  53.2166 247.3660 0001109  97.4691 262.6427 15.08843073136721,6917.871,95.437,540.503,538.969,0.0
50180.0,STARLINK-3265,PAYLOAD,2024-06-07 09:38:00,15.0883355,0.0001069,53.2153,243.4956,83.7883,276.3231,0.00017335,2.472e-05,0.0,0 STARLINK-3265,1 50180U 21125AA  24159.40139891  .00002472  00000-0  17335-3 0  9998,2 50180  53.2153 243.4956 0001069  83.7883 276.3231 15.08833550136856,6917.9,95.438,540.505,539.026,0.0
50180.0,STARLINK-3265,PAYLOAD,2024-06-07 22:21:05,15.08845037,0.0001273,53.2164,241.1157,75.0678,285.0455,0.00018489,2.656e-05,0.0,0 STARLINK-3265,1 50180U 21125AA  24159.93131523  .00002656  00000-0  18489-3 0  9995,2 50180  53.2164 241.1157 0001273  75.0678 285.0455 15.08845037140065,6917.865,95.437,540.611,538.849,0.0
50180.0,STARLINK-3265,PAYLOAD,2024-06-08 14:14:57,15.0884628,0.0001169,53.2149,238.1478,84.2952,275.8173,0.00010007,1.305e-05,0.0,0 STARLINK-3265,1 50180U 21125AA  24160.59371550  .00001305  00000-0  10007-3 0  9993,2 50180  53.2149 238.1478 0001169  84.2952 275.8173 15.08846280140167,6917.861,95.437,540.535,538.917,0.0
50180.0,STARLINK-3265,PAYLOAD,2024-06-08 22:11:52,15.0884892,0.0001632,53.2171,236.6588,79.6,280.5176,0.00010305,1.353e-05,0.0,0 STARLINK-3265,1 50180U 21125AA  24160.92491452  .00001353  00000-0  10305-3 0  9998,2 50180  53.2171 236.6588 0001632  79.6000 280.5176 15.08848920140219,6917.853,95.437,540.847,538.589,0.0
50180.0,STARLINK-3265,PAYLOAD,2024-06-09 12:30:21,15.08835606,0.0001475,53.216,233.9791,75.2937,284.8219,3.6343e-05,2.9e-06,0.0,0 STARLINK-3265,1 50180U 21125AA  24161.52108388  .00000290  00000-0  36343-4 0  9998,2 50180  53.2160 233.9791 0001475  75.2937 284.8219 15.08835606137172,6917.894,95.438,540.779,538.738,0.0
50180.0,STARLINK-3265,PAYLOAD,2024-06-09 14:05:44,15.08838103,0.0001488,53.2162,233.6818,76.8471,283.2687,7.5386e-05,9.12e-06,0.0,0 STARLINK-3265,1 50180U 21125AA  24161.58732290  .00000912  00000-0  75386-4 0  9990,2 50180  53.2162 233.6818 0001488  76.8471 283.2687 15.08838103140312,6917.886,95.438,540.781,538.722,0.0
50180.0,STARLINK-3265,PAYLOAD,2024-06-09 22:02:40,15.08845182,0.0001495,53.2163,232.1984,84.0865,276.0297,0.00024121,3.553e-05,0.0,0 STARLINK-3265,1 50180U 21125AA  24161.91852029  .00003553  00000-0  24121-3 0  9994,2 50180  53.2163 232.1984 0001495  84.0865 276.0297 15.08845182140364,6917.865,95.437,540.764,538.695,0.0
50180.0,STARLINK-3265,PAYLOAD,2024-06-10 10:45:45,15.08842763,0.0001688,53.2167,229.8181,86.7766,273.342,0.00015846,2.235e-05,0.0,0 STARLINK-3265,1 50180U 21125AA  24162.44844351  .00002235  00000-0  15846-3 0  9992,2 50180  53.2167 229.8181 0001688  86.7766 273.3420 15.08842763137314,6917.872,95.437,540.905,538.569,0.0
50180.0,STARLINK-3265,PAYLOAD,2024-06-10 21:53:27,15.08851947,0.0001681,53.2164,227.7334,93.3513,266.7671,0.00032757,4.931e-05,0.0,0 STARLINK-3265,1 50180U 21125AA  24162.91211840  .00004931  00000-0  32757-3 0  9990,2 50180  53.2164 227.7334 0001681  93.3513 266.7671 15.08851947140519,6917.844,95.437,540.872,538.546,0.0
50180.0,STARLINK-3265,PAYLOAD,2024-06-11 10:36:32,15.08844924,0.0001655,53.2175,225.355,96.8943,263.2238,0.00020744,3.015e-05,0.0,0 STARLINK-3265,1 50180U 21125AA  24163.44204035  .00003015  00000-0  20744-3 0  9992,2 50180  53.2175 225.3550 0001655  96.8943 263.2238 15.08844924140597,6917.865,95.437,540.875,538.585,0.0
50180.0,STARLINK-3265,PAYLOAD,2024-06-12 10:27:19,15.08836865,0.0001424,53.2156,220.8969,88.6334,271.4821,2.9465e-05,1.81e-06,0.0,0 STARLINK-3265,1 50180U 21125AA  24164.43564335  .00000181  00000-0  29465-4 0  9995,2 50180  53.2156 220.8969 0001424  88.6334 271.4821 15.08836865137610,6917.89,95.438,540.74,538.77,0.0
50180.0,STARLINK-3265,PAYLOAD,2024-06-13 10:18:06,15.08838314,0.0001329,53.2171,216.4369,86.6487,273.4657,8.2693e-05,1.028e-05,0.0,0 STARLINK-3265,1 50180U 21125AA  24165.42924393  .00001028  00000-0  82693-4 0  9992,2 50180  53.2171 216.4369 0001329  86.6487 273.4657 15.08838314140897,6917.886,95.438,540.67,538.831,0.0
50180.0,STARLINK-3265,PAYLOAD,2024-06-14 13:19:40,15.08834267,0.0001433,53.2174,211.3833,90.1585,269.9571,0.00011552,1.551e-05,0.0,0 STARLINK-3265,1 50180U 21125AA  24166.55532822  .00001551  00000-0  11552-3 0  9995,2 50180  53.2174 211.3833 0001433  90.1585 269.9571 15.08834267137934,6917.898,95.438,540.754,538.772,0.0
50180.0,STARLINK-3265,PAYLOAD,2024-06-14 19:41:12,15.08838698,0.0001451,53.2176,210.1946,91.5602,268.5556,0.00012007,1.623e-05,0.0,0 STARLINK-3265,1 50180U 21125AA  24166.82028586  .00001623  00000-0  12007-3 0  9998,2 50180  53.2176 210.1946 0001451  91.5602 268.5556 15.08838698141107,6917.884,95.438,540.753,538.746,0.0
50180.0,STARLINK-3265,PAYLOAD,2024-06-15 13:10:27,15.08839449,0.0001427,53.2172,206.9241,94.7232,265.3923,5.0244e-05,5.12e-06,0.0,0 STARLINK-3265,1 50180U 21125AA  24167.54892815  .00000512  00000-0  50244-4 0  9994,2 50180  53.2172 206.9241 0001427  94.7232 265.3923 15.08839449141211,6917.882,95.438,540.734,538.76,0.0
50180.0,STARLINK-3265,PAYLOAD,2024-06-15 19:31:59,15.08843908,0.0001434,53.217,205.7344,93.1319,266.9837,6.4775e-05,7.43e-06,0.0,0 STARLINK-3265,1 50180U 21125AA  24167.81388469  .00000743  00000-0  64775-4 0  9999,2 50180  53.2170 205.7344 0001434  93.1319 266.9837 15.08843908141257,6917.868,95.437,540.725,538.741,0.0
50180.0,STARLINK-3265,PAYLOAD,2024-06-16 11:25:51,15.08841474,0.0001441,53.216,202.7607,90.3201,269.7956,5.4879e-05,5.86e-06,0.0,0 STARLINK-3265,1 50180U 21125AA  24168.47628745  .00000586  00000-0  54879-4 0  9995,2 50180  53.2160 202.7607 0001441  90.3201 269.7956 15.08841474141352,6917.876,95.437,540.738,538.744,0.0
